{"type": "FeatureCollection", "features": [ {"type": "Feature", "properties": {"norad_id": 34117, "name": "COSMOS 2251 DEB", "group": "cosmos-2251-debris", "lat": -45.91305855949719, "lon": -175.0721257697883, "alt_km": 802.158774139958, "timestamp": "2025-12-10T14:53:37.481757+00:00", "meta": {"OBJECT_NAME": "COSMOS 2251 DEB", "OBJECT_ID": "1993-036KN", "EPOCH": "2025-12-10T07:10:16.194720", "MEAN_MOTION": 14.39995099, "ECCENTRICITY": 0.00544574, "INCLINATION": 74.0404, "RA_OF_ASC_NODE": 348.3383, "ARG_OF_PERICENTER": 65.4513, "MEAN_ANOMALY": 295.2304, "EPHEMERIS_TYPE": 0, "CLASSIFICATION_TYPE": "U", "NORAD_CAT_ID": 34117, "ELEMENT_SET_NO": 999, "REV_AT_EPOCH": 88088, "BSTAR": 0.00094889348, "MEAN_MOTION_DOT": 3.016e-05, "MEAN_MOTION_DDOT": 0}, "tle": {"line1": "1 34117U 93036KN  25344.29879855  .00003016  00000+0  94889-3 0  9998", "line2": "2 34117  74.0404 348.3383 0054457  65.4513 295.2304 14.39995099880883"}}, "geometry": {"type": "Point", "coordinates": [-175.0721257697883, -45.91305855949719]}}, {"type": "Feature", "properties": {"norad_id": 34118, "name": "COSMOS 2251 DEB", "group": "cosmos-2251-debris", "lat": -63.37611559854624, "lon": 108.6368870320321, "alt_km": 633.0287514470201, "timestamp": "2025-12-10T14:53:37.481766+00:00", "meta": {"OBJECT_NAME": "COSMOS 2251 DEB", "OBJECT_ID": "1993-036KP", "EPOCH": "2025-12-10T04:48:34.420896", "MEAN_MOTION": 14.93777803, "ECCENTRICITY": 0.0059934, "INCLINATION": 73.9524, "RA_OF_ASC_NODE": 254.4425, "ARG_OF_PERICENTER": 85.396, "MEAN_ANOMALY": 64.2449, "EPHEMERIS_TYPE": 0, "CLASSIFICATION_TYPE": "U", "NORAD_CAT_ID": 34118, "ELEMENT_SET_NO": 999, "REV_AT_EPOCH": 89138, "BSTAR": 0.0028591096, "MEAN_MOTION_DOT": 0.00031506, "MEAN_MOTION_DDOT": 0}, "tle": {"line1": "1 34118U 93036KP  25344.20039839  .00031506  00000+0  28591-2 0  9991", "line2": "2 34118  73.9524 254.4425 0059934  85.3960  64.2449 14.93777803891383"}}, "geometry": {"type": "Point", "coordinates": [108.6368870320321, -63.37611559854624]}}, {"type": "Feature", "properties": {"norad_id": 34120, "name": "COSMOS 2251 DEB", "group": "cosmos-2251-debris", "lat": -56.237769680826894, "lon": -165.54147392439015, "alt_km": 943.4806067865284, "timestamp": "2025-12-10T14:53:37.481775+00:00", "meta": {"OBJECT_NAME": "COSMOS 2251 DEB", "OBJECT_ID": "1993-036KR", "EPOCH": "2025-12-10T01:59:33.650304", "MEAN_MOTION": 13.98678879, "ECCENTRICITY": 0.01818435, "INCLINATION": 73.9915, "RA_OF_ASC_NODE": 220.8223, "ARG_OF_PERICENTER": 49.1022, "MEAN_ANOMALY": 67.4561, "EPHEMERIS_TYPE": 0, "CLASSIFICATION_TYPE": "U", "NORAD_CAT_ID": 34120, "ELEMENT_SET_NO": 999, "REV_AT_EPOCH": 85943, "BSTAR": 0.00050360812, "MEAN_MOTION_DOT": 8.1e-06, "MEAN_MOTION_DDOT": 0}, "tle": {"line1": "1 34120U 93036KR  25344.08302836  .00000810  00000+0  50361-3 0  9995", "line2": "2 34120  73.9915 220.8223 0181843  49.1022  67.4561 13.98678879859432"}}, "geometry": {"type": "Point", "coordinates": [-165.54147392439015, -56.237769680826894]}}, {"type": "Feature", "properties": {"norad_id": 34121, "name": "COSMOS 2251 DEB", "group": "cosmos-2251-debris", "lat": -22.794309162414407, "lon": -72.26908618855273, "alt_km": 962.4662224120257, "timestamp": "2025-12-10T14:53:37.481784+00:00", "meta": {"OBJECT_NAME": "COSMOS 2251 DEB", "OBJECT_ID": "1993-036KS", "EPOCH": "2025-12-10T07:05:20.741280", "MEAN_MOTION": 13.91915567, "ECCENTRICITY": 0.02401098, "INCLINATION": 73.9929, "RA_OF_ASC_NODE": 101.3592, "ARG_OF_PERICENTER": 307.3322, "MEAN_ANOMALY": 70.136, "EPHEMERIS_TYPE": 0, "CLASSIFICATION_TYPE": "U", "NORAD_CAT_ID": 34121, "ELEMENT_SET_NO": 999, "REV_AT_EPOCH": 85091, "BSTAR": 0.0016667316, "MEAN_MOTION_DOT": 2.664e-05, "MEAN_MOTION_DDOT": 0}, "tle": {"line1": "1 34121U 93036KS  25344.29537895  .00002664  00000+0  16667-2 0  9993", "line2": "2 34121  73.9929 101.3592 0240109 307.3322  70.1360 13.91915567850916"}}, "geometry": {"type": "Point", "coordinates": [-72.26908618855273, -22.794309162414407]}}, {"type": "Feature", "properties": {"norad_id": 34122, "name": "COSMOS 2251 DEB", "group": "cosmos-2251-debris", "lat": -70.45234767076238, "lon": -3.5595278140852735, "alt_km": 714.7563861233984, "timestamp": "2025-12-10T14:53:37.481793+00:00", "meta": {"OBJECT_NAME": "COSMOS 2251 DEB", "OBJECT_ID": "1993-036KT", "EPOCH": "2025-12-10T02:45:36.180576", "MEAN_MOTION": 14.64991975, "ECCENTRICITY": 0.00841771, "INCLINATION": 74.036, "RA_OF_ASC_NODE": 123.6835, "ARG_OF_PERICENTER": 21.255, "MEAN_ANOMALY": 92.855, "EPHEMERIS_TYPE": 0, "CLASSIFICATION_TYPE": "U", "NORAD_CAT_ID": 34122, "ELEMENT_SET_NO": 999, "REV_AT_EPOCH": 88646, "BSTAR": 0.0016537882, "MEAN_MOTION_DOT": 9.315e-05, "MEAN_MOTION_DDOT": 0}, "tle": {"line1": "1 34122U 93036KT  25344.11500209  .00009315  00000+0  16538-2 0  9991", "line2": "2 34122  74.0360 123.6835 0084177  21.2550  92.8550 14.64991975886460"}}, "geometry": {"type": "Point", "coordinates": [-3.5595278140852735, -70.45234767076238]}}, {"type": "Feature", "properties": {"norad_id": 34127, "name": "COSMOS 2251 DEB", "group": "cosmos-2251-debris", "lat": 61.207774610018824, "lon": 78.7541287980228, "alt_km": 862.6566432052759, "timestamp": "2025-12-10T14:53:37.481802+00:00", "meta": {"OBJECT_NAME": "COSMOS 2251 DEB", "OBJECT_ID": "1993-036KY", "EPOCH": "2025-12-10T04:39:56.961792", "MEAN_MOTION": 14.31501801, "ECCENTRICITY": 0.01149213, "INCLINATION": 74.179, "RA_OF_ASC_NODE": 48.4635, "ARG_OF_PERICENTER": 249.1574, "MEAN_ANOMALY": 141.1493, "EPHEMERIS_TYPE": 0, "CLASSIFICATION_TYPE": "U", "NORAD_CAT_ID": 34127, "ELEMENT_SET_NO": 999, "REV_AT_EPOCH": 86735, "BSTAR": 0.0025855859, "MEAN_MOTION_DOT": 7.369e-05, "MEAN_MOTION_DDOT": 0}, "tle": {"line1": "1 34127U 93036KY  25344.19440928  .00007369  00000+0  25856-2 0  9995", "line2": "2 34127  74.1790  48.4635 0114921 249.1574 141.1493 14.31501801867353"}}, "geometry": {"type": "Point", "coordinates": [78.7541287980228, 61.207774610018824]}}, {"type": "Feature", "properties": {"norad_id": 34128, "name": "COSMOS 2251 DEB", "group": "cosmos-2251-debris", "lat": 70.25511357687998, "lon": 67.97153365204898, "alt_km": 544.4607878541601, "timestamp": "2025-12-10T14:53:37.481811+00:00", "meta": {"OBJECT_NAME": "COSMOS 2251 DEB", "OBJECT_ID": "1993-036KZ", "EPOCH": "2025-12-10T07:00:14.386752", "MEAN_MOTION": 15.00965109, "ECCENTRICITY": 0.00262565, "INCLINATION": 73.9998, "RA_OF_ASC_NODE": 301.718, "ARG_OF_PERICENTER": 54.4419, "MEAN_ANOMALY": 71.4284, "EPHEMERIS_TYPE": 0, "CLASSIFICATION_TYPE": "U", "NORAD_CAT_ID": 34128, "ELEMENT_SET_NO": 999, "REV_AT_EPOCH": 89130, "BSTAR": 0.0029278907, "MEAN_MOTION_DOT": 0.00037786, "MEAN_MOTION_DDOT": 0}, "tle": {"line1": "1 34128U 93036KZ  25344.29183318  .00037786  00000+0  29279-2 0  9993", "line2": "2 34128  73.9998 301.7180 0026256  54.4419  71.4284 15.00965109891306"}}, "geometry": {"type": "Point", "coordinates": [67.97153365204898, 70.25511357687998]}}, {"type": "Feature", "properties": {"norad_id": 34129, "name": "COSMOS 2251 DEB", "group": "cosmos-2251-debris", "lat": -30.98566292235717, "lon": 173.57207018970868, "alt_km": 667.8676560645135, "timestamp": "2025-12-10T14:53:37.481819+00:00", "meta": {"OBJECT_NAME": "COSMOS 2251 DEB", "OBJECT_ID": "1993-036LA", "EPOCH": "2025-12-10T00:55:15.088512", "MEAN_MOTION": 14.7565571, "ECCENTRICITY": 0.00328285, "INCLINATION": 74.0356, "RA_OF_ASC_NODE": 344.8118, "ARG_OF_PERICENTER": 67.2233, "MEAN_ANOMALY": 293.2403, "EPHEMERIS_TYPE": 0, "CLASSIFICATION_TYPE": "U", "NORAD_CAT_ID": 34129, "ELEMENT_SET_NO": 999, "REV_AT_EPOCH": 61258, "BSTAR": 0.001825901, "MEAN_MOTION_DOT": 0.00012573, "MEAN_MOTION_DDOT": 0}, "tle": {"line1": "1 34129U 93036LA  25344.03836908  .00012573  00000+0  18259-2 0  9999", "line2": "2 34129  74.0356 344.8118 0032828  67.2233 293.2403 14.75655710612587"}}, "geometry": {"type": "Point", "coordinates": [173.57207018970868, -30.98566292235717]}}, {"type": "Feature", "properties": {"norad_id": 34136, "name": "COSMOS 2251 DEB", "group": "cosmos-2251-debris", "lat": -25.431171860454473, "lon": 38.980949238741985, "alt_km": 692.1036891017584, "timestamp": "2025-12-10T14:53:37.481828+00:00", "meta": {"OBJECT_NAME": "COSMOS 2251 DEB", "OBJECT_ID": "1993-036LH", "EPOCH": "2025-12-10T07:13:05.897280", "MEAN_MOTION": 14.80052988, "ECCENTRICITY": 0.008599, "INCLINATION": 74.0208, "RA_OF_ASC_NODE": 47.4424, "ARG_OF_PERICENTER": 171.0473, "MEAN_ANOMALY": 258.9457, "EPHEMERIS_TYPE": 0, "CLASSIFICATION_TYPE": "U", "NORAD_CAT_ID": 34136, "ELEMENT_SET_NO": 999, "REV_AT_EPOCH": 89974, "BSTAR": 0.00073708988, "MEAN_MOTION_DOT": 5.915e-05, "MEAN_MOTION_DDOT": 0}, "tle": {"line1": "1 34136U 93036LH  25344.30076270  .00005915  00000+0  73709-3 0  9999", "line2": "2 34136  74.0208  47.4424 0085990 171.0473 258.9457 14.80052988899741"}}, "geometry": {"type": "Point", "coordinates": [38.980949238741985, -25.431171860454473]}}, {"type": "Feature", "properties": {"norad_id": 34139, "name": "COSMOS 2251 DEB", "group": "cosmos-2251-debris", "lat": -32.8891892891084, "lon": 88.77356922958663, "alt_km": 714.8573355760727, "timestamp": "2025-12-10T14:53:37.481837+00:00", "meta": {"OBJECT_NAME": "COSMOS 2251 DEB", "OBJECT_ID": "1993-036LL", "EPOCH": "2025-12-10T04:43:35.266080", "MEAN_MOTION": 14.59005201, "ECCENTRICITY": 0.00425472, "INCLINATION": 74.031, "RA_OF_ASC_NODE": 258.9095, "ARG_OF_PERICENTER": 330.4044, "MEAN_ANOMALY": 180.1161, "EPHEMERIS_TYPE": 0, "CLASSIFICATION_TYPE": "U", "NORAD_CAT_ID": 34139, "ELEMENT_SET_NO": 999, "REV_AT_EPOCH": 88112, "BSTAR": 0.0022458073, "MEAN_MOTION_DOT": 0.00010666, "MEAN_MOTION_DDOT": 0}, "tle": {"line1": "1 34139U 93036LL  25344.19693595  .00010666  00000+0  22458-2 0  9997", "line2": "2 34139  74.0310 258.9095 0042547 330.4044 180.1161 14.59005201881120"}}, "geometry": {"type": "Point", "coordinates": [88.77356922958663, -32.8891892891084]}}]}